P/2017 D1 (Fuls),e,20.7626,82.1769,8.0294,4.825129,0.0929909,0.43875953,90.6160,02/28.0/2019,2000,g 14.0,4.0
# From MPC112391
C/2017 D2 (Barros),e,31.2584,331.0211,334.3760,1940,0.0000115,0.99871877,0.0000,07/14.6370/2017,2000,g 11.0,4.0
# From MPC111769
C/2017 D3 (ATLAS),h,04/26.9335/2017,125.5629,186.6222,340.8090,1.001487,4.972970,2000,8.0,4.0
# From MPC110495
P/2017 D4 (PANSTARRS),e,10.5253,264.9510,212.2424,7.577334,0.0472530,0.63046926,42.6551,02/28.0/2019,2000,g 13.0,4.0
# From MPC104794
C/2017 D5 (PANSTARRS),e,131.0572,92.7329,287.8348,114.6508,0.0008029,0.98110288,0.0000,01/09.0268/2017,2000,g 16.0,4.0
# From MPC106346
C/2017 E1 (Borisov),h,04/10.2674/2017,14.5575,142.6765,152.5267,1.002804,0.900193,2000,14.0,4.0
# From MPC109144
C/2017 E2 (Tsuchinshan),e,78.9993,11.5463,89.4075,21.58820,0.0098261,0.89108382,10.0436,02/28.0/2019,2000,g 11.5,4.0
# From MPC111769
C/2017 E3 (PANSTARRS),h,06/08.2698/2017,70.6228,220.7257,334.4838,1.008095,5.933867,2000,6.5,4.0
# From MPC105239
C/2017 E4 (Lovejoy),h,04/23.3839/2017,88.1684,223.1888,87.1059,1.001500,0.492849,2000,17.0,4.0
# From MPC105239
C/2017 E5 (Lemmon),e,122.6510,206.2233,306.8063,374.8969,0.0001358,0.99523714,0.0000,06/10.5855/2016,2000,g 13.0,4.0
# From MPC111769
C/2017 F1 (Lemmon),h,11/30.9156/2017,146.4797,158.7622,64.8173,1.004803,4.499300,2000,10.5,4.0
# From MPC111769
C/2017 F2 (PANSTARRS),h,11/27.5524/2017,42.5053,38.6692,135.0086,1.005618,6.929507,2000,7.5,4.0
# From MPC104794
P/2017 G1 (PANSTARRS),e,4.7763,249.6295,224.5992,7.306886,0.0499006,0.65495097,51.5308,02/28.0/2019,2000,g 13.5,4.0
# From MPC108595
P/2017 G2 (PANSTARRS),e,47.9583,79.8052,105.7565,8.108546,0.0426864,0.64950597,26.6710,02/28.0/2019,2000,g 13.0,4.0
# From MPC109144
C/2017 G3 (PANSTARRS),e,159.0561,279.4800,73.1344,291.4600,0.0001981,0.99110804,0.0000,04/15.1263/2017,2000,g 14.0,4.0
# From MPC111769
C/2017 K1 (PANSTARRS),h,03/16.0336/2018,154.0045,225.6398,4.2955,1.000445,7.286897,2000,7.0,4.0
# From MPC112391
C/2017 K2 (PANSTARRS),h,12/20.5307/2022,87.5423,88.2663,236.0926,1.000368,1.804482,2000,1.5,4.0
# From MPC106346
P/2017 K3 (Gasparovic),e,4.2774,354.3149,253.3414,5.576029,0.0748543,0.58114531,47.6992,02/28.0/2019,2000,g 14.5,4.0
# From MPC112391
C/2017 K4 (ATLAS),e,16.6781,298.8859,15.1383,28.25348,0.0065629,0.90626698,2.7294,02/28.0/2019,2000,g 10.0,4.0
# From MPC110495
C/2017 K5 (PANSTARRS),h,03/22.6413/2020,82.2568,102.3779,171.7235,1.003932,7.679971,2000,7.0,4.0
# From MPC112391
C/2017 K6 (Jacques),e,57.2559,85.0559,303.8179,1101,0.0000270,0.99818188,0.0000,01/03.1192/2018,2000,g 11.0,4.0
# From MPC110083
C/2017 M3 (PANSTARRS),e,77.5046,6.9995,110.3681,170.8744,0.0004413,0.97273964,0.0000,04/28.4308/2017,2000,g 10.5,4.0
# From MPC112391
C/2017 M4 (ATLAS),h,01/18.1525/2019,105.6565,65.8673,167.6129,1.002383,3.251725,2000,6.0,4.0
# From MPC112391
C/2017 M5 (TOTAS),h,06/03.2108/2018,15.8848,216.2643,92.6808,1.004266,5.989752,2000,6.5,4.0
# From MPC110495
C/2017 O1 (ASASSN),e,39.8509,25.8039,20.8906,379.4334,0.0001334,0.99605103,0.0000,10/14.7255/2017,2000,g 11.0,4.0
# From MPC106347
P/2017 P1 (PANSTARRS),e,7.7013,221.3940,122.1526,7.876984,0.0445825,0.30951402,11.4019,02/28.0/2019,2000,g 10.0,4.0
# From MPC111769
C/2017 P2 (PANSTARRS),e,50.0757,165.5413,132.2585,1450,0.0000179,0.99830182,0.0000,12/06.6195/2017,2000,g 10.0,4.0
# From MPC108595
P/2017 R1 (PANSTARRS),e,2.5731,143.6391,178.4263,4.134274,0.1172479,0.19527688,80.9538,02/28.0/2019,2000,g 13.5,4.0
# From MPC108595
C/2017 S2 (PANSTARRS),e,12.6833,62.4272,305.9405,20.46471,0.0106462,0.82342517,5.8316,02/28.0/2019,2000,g 13.0,4.0
# From MPC111770
C/2017 S3 (PANSTARRS),h,08/15.9697/2018,99.0403,171.0368,255.8038,1.000625,0.208523,2000,11.0,4.0
# From MPC110083
P/2017 S5 (ATLAS),e,11.8505,252.3927,99.8639,3.170374,0.1745976,0.31330572,101.2838,02/28.0/2019,2000,g 14.0,4.0
# From MPC109591
C/2017 S6 (Catalina),h,02/26.9715/2018,152.8508,130.9545,134.7773,1.001485,1.543157,2000,12.5,4.0
# From MPC112391
C/2017 S7 (Lemmon),h,05/27.1524/2017,124.2341,262.7954,187.7015,1.002354,7.612883,2000,7.0,4.0
# From MPC109145
P/2017 S8 (PANSTARRS),e,29.8534,191.8046,254.5926,2.776287,0.2130627,0.39343337,84.2336,02/28.0/2019,2000,g 16.0,4.0
# From MPC107050
P/2017 S9 (PANSTARRS),e,14.1408,146.2109,237.8085,3.155364,0.1758449,0.30461280,102.8136,02/28.0/2019,2000,g 17.0,4.0
# From MPC109145
C/2017 T1 (Heinze),e,96.8412,102.3228,96.8874,29233,0.0000002,0.99998014,0.0000,02/21.6858/2018,2000,g 14.5,4.0
# From MPC112391
C/2017 T2 (PANSTARRS),e,57.2369,64.3780,93.0002,8790,0.0000012,0.99981629,0.0000,05/04.9240/2020,2000,g  5.0,4.0
# From MPC111770
C/2017 T3 (ATLAS),e,88.0919,230.0850,246.8788,5802,0.0000022,0.99985774,0.0000,07/19.1757/2018,2000,g 10.0,4.0
# From MPEC 2018-W75
P/2017 TW13 (Lemmon),e,44.8398,322.2751,120.1045,7.158684,0.0514582,0.70961301,12.9693,02/28.0/2019,2000,g 15.0,2.0
# From MPC109145
C/2017 U2 (Fuls),e,95.4087,149.7172,147.7346,8473,0.0000013,0.99920920,0.0000,08/28.1767/2017,2000,g  9.0,4.0
# From MPC109146
P/2017 U3 (PANSTARRS),e,15.9080,165.1265,297.3867,4.934625,0.0899131,0.09933000,355.3084,02/28.0/2019,2000,g 11.0,4.0
# From MPC112392
C/2017 U4 (PANSTARRS),h,09/25.0881/2018,158.2266,245.9509,159.1376,1.003870,7.724147,2000,7.0,4.0
# From MPC109146
C/2017 U5 (PANSTARRS),e,18.9589,163.1000,262.1154,16.90332,0.0141823,0.74406342,6.1870,02/28.0/2019,2000,g 12.0,4.0
# From MPC111770
C/2017 W2 (Leonard),e,98.1921,312.8169,169.1615,13.70638,0.0194232,0.71127647,9.3824,02/28.0/2019,2000,g 11.0,4.0
# From MPC111770
P/2017 W3 (Gibbs),e,18.2951,210.7444,326.6398,7.782043,0.0454008,0.50670943,16.6482,02/28.0/2019,2000,g 10.5,4.0
# From MPC111770
C/2017 X1 (PANSTARRS),e,31.3113,251.1256,283.1556,31.38973,0.0056043,0.85144635,1.4469,02/28.0/2019,2000,g 10.0,4.0
# From MPC109146
C/2017 Y1 (PANSTARRS),e,55.2474,307.5143,134.4203,2428,0.0000082,0.99846847,0.0000,08/31.3228/2017,2000,g 11.5,4.0
# From MPC109146
C/2017 Y2 (PANSTARRS),e,126.0739,61.4853,146.1504,15.86443,0.0155979,0.67354447,347.7401,02/28.0/2019,2000,g  8.0,4.0
# From MPC111770
P/2017 Y3 (Leonard),e,27.5837,153.8718,67.5343,9.854299,0.0318614,0.87055164,12.1635,02/28.0/2019,2000,g 16.5,4.0
# From MPC111770
C/2018 A1 (PANSTARRS),e,53.5673,336.6207,96.3749,25.21023,0.0077864,0.90403554,3.8593,02/28.0/2019,2000,g 12.5,4.0
# From MPC112392
C/2018 A3 (ATLAS),e,139.5619,194.2809,86.4255,506.7125,0.0000864,0.99353328,0.0000,01/12.8565/2019,2000,g  8.5,4.0
# From MPC109592
C/2018 A4 (PANSTARRS),e,3.1484,97.6270,356.1027,12.38401,0.0226158,0.80593442,6.4526,02/28.0/2019,2000,g 14.0,4.0
# From MPC109147
P/2018 A5 (PANSTARRS),e,23.5776,87.8317,359.6689,5.643440,0.0735171,0.52261661,38.3970,02/28.0/2019,2000,g 15.0,4.0
# From MPC111771
C/2018 A6 (Gibbs),e,76.9550,340.3846,264.5180,15.35495,0.0163807,0.80345026,357.7680,02/28.0/2019,2000,g  9.0,4.0
# From MPC112392
C/2018 B1 (Lemmon),h,03/30.3581/2018,162.4233,133.1748,68.3445,1.002893,5.116519,2000,9.0,4.0
# From MPC111771
P/2018 C1 (Lemmon-Read),e,5.1349,270.4237,234.4612,5.587494,0.0746240,0.53520498,27.3896,02/28.0/2019,2000,g 13.5,4.0
# From MPC112392
C/2018 C2 (Lemmon),h,06/02.1699/2018,34.4583,91.1389,134.1163,1.001476,1.956237,2000,13.0,4.0
# From MPC111771
C/2018 E1 (ATLAS),e,72.4856,146.8391,299.4732,54.31350,0.0024623,0.95018774,0.7798,02/28.0/2019,2000,g 10.5,4.0
# From MPC110496
C/2018 E2 (Barros),e,97.7483,67.1940,277.4874,1300,0.0000210,0.99698281,0.0000,12/23.7664/2017,2000,g 10.5,4.0
# From MPC112392
C/2018 EN4 (NEOWISE),e,81.5631,136.1642,35.0145,18.40529,0.0124822,0.92132409,3.3106,02/28.0/2019,2000,g 15.0,4.0
# From MPC111771
C/2018 EF9 (Lemmon),e,84.6907,172.5798,72.6212,634.7779,0.0000616,0.99754764,0.0000,05/23.1309/2018,2000,g 18.0,2.0
# From MPC111771
C/2018 F1 (Grauer),e,46.0706,177.2862,71.6255,320.7690,0.0001716,0.99066886,0.0000,12/14.0794/2018,2000,g 11.5,4.0
# From MPC110084
C/2018 F3 (Johnson),p,08/15.2314/2017,105.5348,293.0113,2.483172,173.0311,2000,13.0,4.0
# From MPC111771
P/2018 H2 (PANSTARRS),e,7.3891,68.4545,120.1319,4.402863,0.1066845,0.53994443,42.7517,02/28.0/2019,2000,g 16.6,2.0
# From MPC111772
C/2018 K1 (Weiland),e,164.1957,260.0089,324.9685,29.89084,0.0060311,0.93716301,1.9731,02/28.0/2019,2000,g 14.9,4.0
# From MPC112392
C/2018 KJ3 (Lemmon),e,136.6800,91.5859,217.6792,1121,0.0000263,0.99676294,0.0000,09/09.7636/2019,2000,g 12.2,2.0
# From MPC111772
P/2018 L1 (PANSTARRS),e,10.5948,268.6268,17.8887,3.647392,0.1414915,0.48300541,15.2070,02/28.0/2019,2000,g 15.0,4.0
# From MPC112392
C/2018 L2 (ATLAS),e,67.4237,243.0178,56.2276,243.9326,0.0002587,0.99298262,0.0000,12/02.5770/2018,2000,g 10.0,4.0
# From MPC112392
P/2018 L4 (PANSTARRS),e,26.6253,145.1912,140.4429,4.934192,0.0899249,0.66026872,18.9871,02/28.0/2019,2000,g 17.5,4.0
# From MPC112392
P/2018 L5 (Leonard),e,2.2091,219.1602,93.6509,3.625640,0.1427667,0.36469928,42.7529,02/28.0/2019,2000,g 14.5,4.0
# From MPC112392
C/2018 M1 (Catalina),e,37.2581,339.4598,14.1357,21.30549,0.0100223,0.93882147,2.3349,02/28.0/2019,2000,g 15.5,4.0
# From MPC112393
C/2018 N1 (NEOWISE),e,159.4441,292.4486,354.5581,337.4705,0.0001590,0.99612670,0.0000,08/01.9759/2018,2000,g 15.5,4.0
# From MPC112393
C/2018 N2 (ASASSN),e,77.5367,25.2610,24.4000,19362,0.0000004,0.99983861,0.0000,11/11.0342/2019,2000,g  6.0,4.0
# From MPC112393
C/2018 O1 (ATLAS),e,154.0427,87.6220,162.4945,27.80620,0.0067219,0.94397047,1.2129,02/28.0/2019,2000,g 17.0,4.0
# From MPEC 2018-Y53
P/2018 P3 (PANSTARRS),e,8.9091,59.2099,305.8832,3.007139,0.1890053,0.41591468,26.7519,02/28.0/2019,2000,g 14.5,4.0
# From MPC112393
P/2018 P4 (PANSTARRS),e,23.1106,353.1091,8.1110,6.659514,0.0573509,0.44948818,6.4626,02/28.0/2019,2000,g 12.0,4.0
# From MPC112393
C/2018 P5 (PANSTARRS),e,7.2568,216.2423,131.6301,12.74205,0.0216693,0.64088327,0.0392,02/28.0/2019,2000,g 11.0,4.0
# From MPC112393
C/2018 R3 (Lemmon),e,69.7133,324.6260,112.8804,1430,0.0000182,0.99909712,0.0000,06/07.2363/2019,2000,g 11.5,4.0
# From MPC112393
